STARLINK-5425           
1 54791U 22175AK  26068.31448816 -.00000950  00000+0 -41597-4 0  9995
2 54791  53.2184  30.7480 0001665 105.8223 254.2953 15.08841332180073
2024-205L               
1 61904U 24205L   26066.14074752  .00013606  00000+0  79283-3 0  9990
2 61904  97.4213 140.2188 0054772 346.2042  13.7688 15.10822925 72825
